{
  "norad_id": 58486,
  "name": "STARLINK-31005",
  "history": [
    {
      "epoch": "2026-03-28T21:42:58.407552Z",
      "apogee_km": 484.0834741474737,
      "perigee_km": 482.0425415931313,
      "latitude_deg": -1.3512749009748127e-05,
      "longitude_deg": 163.17513121992457,
      "height_km": 482.82761918688647,
      "semi_major_axis_km": 6861.200007870302,
      "eccentricity": 0.00014873,
      "inclination_deg": 43.0016,
      "raan_deg": 315.2371,
      "arg_perigee_deg": 270.6931,
      "mean_anomaly_deg": 89.375,
      "mean_motion_rev_day": 15.27575354
    },
    {
      "epoch": "2026-03-29T00:51:16.591680Z",
      "apogee_km": 484.18703881273086,
      "perigee_km": 481.8761972221828,
      "latitude_deg": 2.1327856988921455e-05,
      "longitude_deg": 115.23251228334595,
      "height_km": 482.786381815197,
      "semi_major_axis_km": 6861.1686180174565,
      "eccentricity": 0.0001684,
      "inclination_deg": 43.002,
      "raan_deg": 314.4991,
      "arg_perigee_deg": 271.1104,
      "mean_anomaly_deg": 88.9555,
      "mean_motion_rev_day": 15.27585837
    },
    {
      "epoch": "2026-03-29T22:49:28.267968Z",
      "apogee_km": 484.1588229636782,
      "perigee_km": 481.9508914240323,
      "latitude_deg": -2.0773035453526504e-05,
      "longitude_deg": 139.6119445072983,
      "height_km": 482.8039647072791,
      "semi_major_axis_km": 6861.191857193855,
      "eccentricity": 0.0001609,
      "inclination_deg": 43.002,
      "raan_deg": 309.3295,
      "arg_perigee_deg": 271.453,
      "mean_anomaly_deg": 88.6137,
      "mean_motion_rev_day": 15.27578076
    },
    {
      "epoch": "2026-03-29T22:49:28.268832Z",
      "apogee_km": 484.1586171279223,
      "perigee_km": 481.9510972597882,
      "latitude_deg": -2.3134072869782757e-05,
      "longitude_deg": 139.6119383797125,
      "height_km": 482.8039699261809,
      "semi_major_axis_km": 6861.191857193855,
      "eccentricity": 0.00016087,
      "inclination_deg": 43.002,
      "raan_deg": 309.3295,
      "arg_perigee_deg": 271.453,
      "mean_anomaly_deg": 88.6137,
      "mean_motion_rev_day": 15.27578076
    },
    {
      "epoch": "2026-03-30T14:31:01.817760Z",
      "apogee_km": 484.19606397695225,
      "perigee_km": 481.89825340220796,
      "latitude_deg": -1.9317300155545777e-06,
      "longitude_deg": -100.1152998238065,
      "height_km": 482.8856725950854,
      "semi_major_axis_km": 6861.18415868958,
      "eccentricity": 0.00016745,
      "inclination_deg": 43.0019,
      "raan_deg": 305.6365,
      "arg_perigee_deg": 266.9371,
      "mean_anomaly_deg": 93.1289,
      "mean_motion_rev_day": 15.27580647
    },
    {
      "epoch": "2026-03-30T20:47:39.826752Z",
      "apogee_km": 484.2198691554777,
      "perigee_km": 481.9199925922494,
      "latitude_deg": 2.8510155366403336e-05,
      "longitude_deg": 163.99156568127216,
      "height_km": 482.85467887474726,
      "semi_major_axis_km": 6861.206930873864,
      "eccentricity": 0.0001676,
      "inclination_deg": 43.0026,
      "raan_deg": 304.1595,
      "arg_perigee_deg": 269.6245,
      "mean_anomaly_deg": 90.4415,
      "mean_motion_rev_day": 15.27573042
    },
    {
      "epoch": "2026-03-31T17:11:41.921952Z",
      "apogee_km": 484.0688786026931,
      "perigee_km": 482.0667790336438,
      "latitude_deg": 5.53089501306111e-05,
      "longitude_deg": -147.65575671463577,
      "height_km": 482.74952145884924,
      "semi_major_axis_km": 6861.204828818169,
      "eccentricity": 0.0001459,
      "inclination_deg": 43.003,
      "raan_deg": 299.3587,
      "arg_perigee_deg": 275.4683,
      "mean_anomaly_deg": 84.6003,
      "mean_motion_rev_day": 15.27573744
    },
    {
      "epoch": "2026-04-01T19:52:21.648576Z",
      "apogee_km": 484.0602984652078,
      "perigee_km": 482.0582013994772,
      "latitude_deg": 9.288149215681587e-06,
      "longitude_deg": 164.80485374739408,
      "height_km": 482.9053877163424,
      "semi_major_axis_km": 6861.196249932343,
      "eccentricity": 0.0001459,
      "inclination_deg": 43.003,
      "raan_deg": 293.0805,
      "arg_perigee_deg": 266.0438,
      "mean_anomaly_deg": 94.0247,
      "mean_motion_rev_day": 15.27576609
    },
    {
      "epoch": "2026-04-02T13:08:04.794144Z",
      "apogee_km": 484.26238579010897,
      "perigee_km": 481.8521854614546,
      "latitude_deg": 4.63999858260277e-06,
      "longitude_deg": -98.89654834341884,
      "height_km": 483.0587837135809,
      "semi_major_axis_km": 6861.194285625782,
      "eccentricity": 0.00017564,
      "inclination_deg": 43.0031,
      "raan_deg": 289.0178,
      "arg_perigee_deg": 259.2771,
      "mean_anomaly_deg": 100.7883,
      "mean_motion_rev_day": 15.27577265
    },
    {
      "epoch": "2026-04-02T20:58:51.335328Z",
      "apogee_km": 484.1754886698609,
      "perigee_km": 481.900185870325,
      "latitude_deg": 2.8534951209098245e-05,
      "longitude_deg": 141.2416212575648,
      "height_km": 483.01323149963787,
      "semi_major_axis_km": 6861.174837270093,
      "eccentricity": 0.00016581,
      "inclination_deg": 43.003,
      "raan_deg": 287.1721,
      "arg_perigee_deg": 259.9668,
      "mean_anomaly_deg": 100.0997,
      "mean_motion_rev_day": 15.2758376
    },
    {
      "epoch": "2026-04-03T14:14:33.512352Z",
      "apogee_km": 484.16476894917105,
      "perigee_km": 481.8415868849279,
      "latitude_deg": 2.3760459391174803e-05,
      "longitude_deg": -122.4547348698868,
      "height_km": 482.769351901136,
      "semi_major_axis_km": 6861.140177917049,
      "eccentricity": 0.0001693,
      "inclination_deg": 43.0031,
      "raan_deg": 283.1104,
      "arg_perigee_deg": 270.5479,
      "mean_anomaly_deg": 89.5179,
      "mean_motion_rev_day": 15.27595335
    },
    {
      "epoch": "2026-04-04T20:03:33.654816Z",
      "apogee_km": 484.30263702778666,
      "perigee_km": 481.8133954758914,
      "latitude_deg": -2.252261021117676e-05,
      "longitude_deg": 142.05419273831612,
      "height_km": 482.7425136552706,
      "semi_major_axis_km": 6861.195016251839,
      "eccentricity": 0.0001814,
      "inclination_deg": 43.0026,
      "raan_deg": 276.0945,
      "arg_perigee_deg": 274.2777,
      "mean_anomaly_deg": 85.7867,
      "mean_motion_rev_day": 15.27577021
    },
    {
      "epoch": "2026-04-05T13:19:16.786560Z",
      "apogee_km": 484.687520146279,
      "perigee_km": 481.4299616324197,
      "latitude_deg": 2.176964334244154e-05,
      "longitude_deg": -121.64570115216425,
      "height_km": 482.37488048433926,
      "semi_major_axis_km": 6861.1957408893495,
      "eccentricity": 0.00023739,
      "inclination_deg": 43.003,
      "raan_deg": 272.0332,
      "arg_perigee_deg": 286.4646,
      "mean_anomaly_deg": 73.5945,
      "mean_motion_rev_day": 15.27576779
    },
    {
      "epoch": "2026-04-05T18:01:45.165216Z",
      "apogee_km": 484.7396242018176,
      "perigee_km": 481.393140864021,
      "latitude_deg": 7.099476412844858e-06,
      "longitude_deg": 166.4347925702725,
      "height_km": 482.25634145663724,
      "semi_major_axis_km": 6861.203382532919,
      "eccentricity": 0.00024387,
      "inclination_deg": 43.0032,
      "raan_deg": 270.9253,
      "arg_perigee_deg": 290.5687,
      "mean_anomaly_deg": 69.4903,
      "mean_motion_rev_day": 15.27574227
    },
    {
      "epoch": "2026-04-07T10:49:50.935872Z",
      "apogee_km": 484.43550153118576,
      "perigee_km": 481.78705969486873,
      "latitude_deg": 6.0869867131094924e-05,
      "longitude_deg": -96.86466103947639,
      "height_km": 482.64948542953596,
      "semi_major_axis_km": 6861.2482806130265,
      "eccentricity": 0.000193,
      "inclination_deg": 43.0053,
      "raan_deg": 261.3255,
      "arg_perigee_deg": 280.4205,
      "mean_anomaly_deg": 79.643,
      "mean_motion_rev_day": 15.27559233
    },
    {
      "epoch": "2026-04-07T17:06:28.230336Z",
      "apogee_km": 484.63357545291274,
      "perigee_km": 481.5419075843838,
      "latitude_deg": 5.734940569517171e-05,
      "longitude_deg": 167.24685253177614,
      "height_km": 482.4244760725712,
      "semi_major_axis_km": 6861.2247415186475,
      "eccentricity": 0.0002253,
      "inclination_deg": 43.0056,
      "raan_deg": 259.8502,
      "arg_perigee_deg": 286.585,
      "mean_anomaly_deg": 73.4755,
      "mean_motion_rev_day": 15.27567094
    },
    {
      "epoch": "2026-04-08T10:22:10.836768Z",
      "apogee_km": 484.43772361359515,
      "perigee_km": 481.680620543807,
      "latitude_deg": 3.5029705342838837e-05,
      "longitude_deg": -96.45421861844343,
      "height_km": 482.8015293724921,
      "semi_major_axis_km": 6861.196172078701,
      "eccentricity": 0.00020092,
      "inclination_deg": 43.004,
      "raan_deg": 255.7856,
      "arg_perigee_deg": 271.4661,
      "mean_anomaly_deg": 88.5961,
      "mean_motion_rev_day": 15.27576635
    },
    {
      "epoch": "2026-04-09T17:45:17.533728Z",
      "apogee_km": 484.6117720637403,
      "perigee_km": 481.4035008317378,
      "latitude_deg": -7.908709191267623e-06,
      "longitude_deg": 144.0935835903623,
      "height_km": 482.69914029249003,
      "semi_major_axis_km": 6861.144636447739,
      "eccentricity": 0.0002338,
      "inclination_deg": 43.0036,
      "raan_deg": 248.4003,
      "arg_perigee_deg": 273.0848,
      "mean_anomaly_deg": 86.9736,
      "mean_motion_rev_day": 15.27593846
    },
    {
      "epoch": "2026-04-10T03:10:13.617984Z",
      "apogee_km": 484.7120284943785,
      "perigee_km": 481.32426452923664,
      "latitude_deg": -3.817238198524537e-05,
      "longitude_deg": 0.25878176094401645,
      "height_km": 482.66733903016234,
      "semi_major_axis_km": 6861.155146511807,
      "eccentricity": 0.00024688,
      "inclination_deg": 43.0041,
      "raan_deg": 246.1859,
      "arg_perigee_deg": 274.3605,
      "mean_anomaly_deg": 85.6964,
      "mean_motion_rev_day": 15.27590336
    }
  ]
}